{
  "norad_id": 61055,
  "name": "STARLINK-11268 [DTC]",
  "history": [
    {
      "epoch": "2026-04-17T17:25:47.220672Z",
      "apogee_km": 360.4001943793819,
      "perigee_km": 359.0406295108005,
      "latitude_deg": -4.8361416910611076e-05,
      "longitude_deg": 11.263553051063361,
      "height_km": 360.40426763088203,
      "semi_major_axis_km": 6737.857411945091,
      "eccentricity": 0.00010089,
      "inclination_deg": 53.1596,
      "raan_deg": 118.5658,
      "arg_perigee_deg": 70.2265,
      "mean_anomaly_deg": 289.8861,
      "mean_motion_rev_day": 15.69712215
    },
    {
      "epoch": "2026-04-18T17:52:42.943008Z",
      "apogee_km": 360.48441070406716,
      "perigee_km": 358.91853704273944,
      "latitude_deg": 5.693256566045188e-05,
      "longitude_deg": -1.4937216162242406,
      "height_km": 360.4321324201668,
      "semi_major_axis_km": 6737.838473873403,
      "eccentricity": 0.0001162,
      "inclination_deg": 53.1598,
      "raan_deg": 113.5447,
      "arg_perigee_deg": 76.4877,
      "mean_anomaly_deg": 283.6271,
      "mean_motion_rev_day": 15.69718833
    },
    {
      "epoch": "2026-04-19T16:47:59.940384Z",
      "apogee_km": 360.42410831603956,
      "perigee_km": 359.0819206251581,
      "latitude_deg": -4.725609024020621e-06,
      "longitude_deg": 9.03366120462205,
      "height_km": 360.49296445543655,
      "semi_major_axis_km": 6737.8900144705985,
      "eccentricity": 9.96e-05,
      "inclination_deg": 53.1603,
      "raan_deg": 108.8343,
      "arg_perigee_deg": 74.9793,
      "mean_anomaly_deg": 285.1335,
      "mean_motion_rev_day": 15.69700822
    },
    {
      "epoch": "2026-04-20T09:36:31.188672Z",
      "apogee_km": 360.4919358792449,
      "perigee_km": 359.021996931534,
      "latitude_deg": -2.6364786968307927e-05,
      "longitude_deg": 112.76243465863008,
      "height_km": 360.6045319288801,
      "semi_major_axis_km": 6737.893966405389,
      "eccentricity": 0.00010908,
      "inclination_deg": 53.159,
      "raan_deg": 105.3836,
      "arg_perigee_deg": 84.8477,
      "mean_anomaly_deg": 275.2665,
      "mean_motion_rev_day": 15.69699441
    },
    {
      "epoch": "2026-04-21T16:10:10.464672Z",
      "apogee_km": 360.2404257220651,
      "perigee_km": 359.2001005606353,
      "latitude_deg": -4.3090401895327824e-05,
      "longitude_deg": 6.8184771330372245,
      "height_km": 360.50529385605654,
      "semi_major_axis_km": 6737.85726314135,
      "eccentricity": 7.72e-05,
      "inclination_deg": 53.16,
      "raan_deg": 99.1084,
      "arg_perigee_deg": 75.6292,
      "mean_anomaly_deg": 284.4811,
      "mean_motion_rev_day": 15.69712267
    },
    {
      "epoch": "2026-04-21T22:16:57.432000Z",
      "apogee_km": 360.5650518283028,
      "perigee_km": 359.059793927232,
      "latitude_deg": -2.8485389312298307e-05,
      "longitude_deg": -86.38326375095208,
      "height_km": 360.6599148909908,
      "semi_major_axis_km": 6737.949422877768,
      "eccentricity": 0.0001117,
      "inclination_deg": 53.1608,
      "raan_deg": 97.8534,
      "arg_perigee_deg": 84.9515,
      "mean_anomaly_deg": 275.163,
      "mean_motion_rev_day": 15.69680062
    },
    {
      "epoch": "2026-04-23T07:53:58.264512Z",
      "apogee_km": 360.62011074102793,
      "perigee_km": 358.82878289677683,
      "latitude_deg": -4.7670679673004194e-05,
      "longitude_deg": 121.07685301138639,
      "height_km": 360.3987741659208,
      "semi_major_axis_km": 6737.861446818903,
      "eccentricity": 0.00013293,
      "inclination_deg": 53.1583,
      "raan_deg": 90.9476,
      "arg_perigee_deg": 74.5295,
      "mean_anomaly_deg": 285.5869,
      "mean_motion_rev_day": 15.69710805
    },
    {
      "epoch": "2026-04-24T05:17:32.377632Z",
      "apogee_km": 360.35977104230915,
      "perigee_km": 359.09709506015497,
      "latitude_deg": -1.1270739626816707e-05,
      "longitude_deg": 154.91126928473346,
      "height_km": 360.616922740058,
      "semi_major_axis_km": 6737.865433051232,
      "eccentricity": 9.37e-05,
      "inclination_deg": 53.1592,
      "raan_deg": 86.5527,
      "arg_perigee_deg": 87.7032,
      "mean_anomaly_deg": 272.4093,
      "mean_motion_rev_day": 15.69709412
    },
    {
      "epoch": "2026-04-25T21:01:19.035264Z",
      "apogee_km": 360.3332622963071,
      "perigee_km": 359.12853151633954,
      "latitude_deg": 2.888354673316972e-06,
      "longitude_deg": -90.82636552837386,
      "height_km": 360.7428348440459,
      "semi_major_axis_km": 6737.867896906323,
      "eccentricity": 8.94e-05,
      "inclination_deg": 53.1592,
      "raan_deg": 78.3911,
      "arg_perigee_deg": 99.3709,
      "mean_anomaly_deg": 260.741,
      "mean_motion_rev_day": 15.69708551
    },
    {
      "epoch": "2026-04-26T03:08:03.631776Z",
      "apogee_km": 360.3561941025828,
      "perigee_km": 359.13960160542683,
      "latitude_deg": -1.1005197084092042e-06,
      "longitude_deg": 175.97938591327733,
      "height_km": 360.871907655499,
      "semi_major_axis_km": 6737.8848978540045,
      "eccentricity": 9.028e-05,
      "inclination_deg": 53.1599,
      "raan_deg": 77.1337,
      "arg_perigee_deg": 110.199,
      "mean_anomaly_deg": 249.9125,
      "mean_motion_rev_day": 15.6970261
    },
    {
      "epoch": "2026-04-27T20:23:31.850880Z",
      "apogee_km": 359.95120904776104,
      "perigee_km": 359.6237459181548,
      "latitude_deg": -2.517499850098737e-05,
      "longitude_deg": -93.05520966575847,
      "height_km": 360.86306954387464,
      "semi_major_axis_km": 6737.924477482958,
      "eccentricity": 2.43e-05,
      "inclination_deg": 53.1599,
      "raan_deg": 68.6611,
      "arg_perigee_deg": 168.7964,
      "mean_anomaly_deg": 191.3059,
      "mean_motion_rev_day": 15.69688779
    },
    {
      "epoch": "2026-04-28T20:50:27.462624Z",
      "apogee_km": 360.2051402316265,
      "perigee_km": 359.38176513030976,
      "latitude_deg": 4.940867516830283e-05,
      "longitude_deg": -105.81284472247285,
      "height_km": 360.8172031597808,
      "semi_major_axis_km": 6737.930452680968,
      "eccentricity": 6.11e-05,
      "inclination_deg": 53.16,
      "raan_deg": 63.6392,
      "arg_perigee_deg": 105.4165,
      "mean_anomaly_deg": 254.6921,
      "mean_motion_rev_day": 15.69686691
    },
    {
      "epoch": "2026-04-29T06:00:34.421760Z",
      "apogee_km": 360.60526732737526,
      "perigee_km": 358.9719941544836,
      "latitude_deg": -5.7644882523246734e-06,
      "longitude_deg": 114.39717691944874,
      "height_km": 360.9537192705339,
      "semi_major_axis_km": 6737.92563074093,
      "eccentricity": 0.0001212,
      "inclination_deg": 53.1604,
      "raan_deg": 61.7548,
      "arg_perigee_deg": 107.9348,
      "mean_anomaly_deg": 252.1802,
      "mean_motion_rev_day": 15.69688376
    },
    {
      "epoch": "2026-04-30T12:34:14.589408Z",
      "apogee_km": 360.5786642378707,
      "perigee_km": 358.8734458559002,
      "latitude_deg": 6.989687452478752e-05,
      "longitude_deg": 8.448165881082147,
      "height_km": 360.3334719316959,
      "semi_major_axis_km": 6737.863055046885,
      "eccentricity": 0.00012654,
      "inclination_deg": 53.1613,
      "raan_deg": 55.4782,
      "arg_perigee_deg": 68.948,
      "mean_anomaly_deg": 291.1674,
      "mean_motion_rev_day": 15.69710243
    },
    {
      "epoch": "2026-05-01T05:22:45.740064Z",
      "apogee_km": 360.50872690144024,
      "perigee_km": 358.97922791956717,
      "latitude_deg": -8.365199629618866e-06,
      "longitude_deg": 112.17480580786616,
      "height_km": 360.78664137572616,
      "semi_major_axis_km": 6737.880977410503,
      "eccentricity": 0.0001135,
      "inclination_deg": 53.1602,
      "raan_deg": 52.025,
      "arg_perigee_deg": 99.7122,
      "mean_anomaly_deg": 260.4024,
      "mean_motion_rev_day": 15.6970398
    },
    {
      "epoch": "2026-05-03T04:44:58.157376Z",
      "apogee_km": 360.45019091800623,
      "perigee_km": 359.0701348211069,
      "latitude_deg": -1.789995820884541e-05,
      "longitude_deg": 109.94773450121804,
      "height_km": 360.38345433437763,
      "semi_major_axis_km": 6737.897162869556,
      "eccentricity": 0.00010241,
      "inclination_deg": 53.1588,
      "raan_deg": 42.2951,
      "arg_perigee_deg": 65.1054,
      "mean_anomaly_deg": 295.007,
      "mean_motion_rev_day": 15.69698324
    },
    {
      "epoch": "2026-05-04T17:25:23.121984Z",
      "apogee_km": 360.4791431879885,
      "perigee_km": 359.00893754498156,
      "latitude_deg": 4.3852206197023946e-05,
      "longitude_deg": -89.19257498402652,
      "height_km": 360.5988261644786,
      "semi_major_axis_km": 6737.881040366485,
      "eccentricity": 0.0001091,
      "inclination_deg": 53.1587,
      "raan_deg": 34.7649,
      "arg_perigee_deg": 85.4168,
      "mean_anomaly_deg": 274.6975,
      "mean_motion_rev_day": 15.69703958
    },
    {
      "epoch": "2026-05-05T04:07:08.529600Z",
      "apogee_km": 360.3607855575028,
      "perigee_km": 359.02063162626473,
      "latitude_deg": -2.634065159879386e-06,
      "longitude_deg": 107.72922342507286,
      "height_km": 361.0368491238597,
      "semi_major_axis_km": 6737.8277085918835,
      "eccentricity": 9.945e-05,
      "inclination_deg": 53.1576,
      "raan_deg": 32.5652,
      "arg_perigee_deg": 130.1767,
      "mean_anomaly_deg": 229.9338,
      "mean_motion_rev_day": 15.69722595
    },
    {
      "epoch": "2026-05-06T10:40:51.845664Z",
      "apogee_km": 360.59469122876635,
      "perigee_km": 358.9465990187691,
      "latitude_deg": 1.6869410272524447e-05,
      "longitude_deg": 1.770411399114895,
      "height_km": 360.7305371532976,
      "semi_major_axis_km": 6737.907645123768,
      "eccentricity": 0.0001223,
      "inclination_deg": 53.1593,
      "raan_deg": 26.292,
      "arg_perigee_deg": 93.2337,
      "mean_anomaly_deg": 266.8821,
      "mean_motion_rev_day": 15.69694661
    }
  ]
}